[{"OBJECT_NAME":"SEAHAWK-1","OBJECT_ID":"2018-099BQ","EPOCH":"2026-03-09T17:26:19.455648","MEAN_MOTION":15.21024633,"ECCENTRICITY":0.00069788,"INCLINATION":97.4094,"RA_OF_ASC_NODE":122.7887,"ARG_OF_PERICENTER":302.9769,"MEAN_ANOMALY":57.0796,"EPHEMERIS_TYPE":0,"CLASSIFICATION_TYPE":"U","NORAD_CAT_ID":43820,"ELEMENT_SET_NO":999,"REV_AT_EPOCH":39740,"BSTAR":0.00046242233,"MEAN_MOTION_DOT":0.00010205,"MEAN_MOTION_DDOT":0},{"OBJECT_NAME":"CZ-6A DEB","OBJECT_ID":"2022-151VX","EPOCH":"2026-03-09T17:15:51.308640","MEAN_MOTION":15.17668829,"ECCENTRICITY":0.00301527,"INCLINATION":98.6392,"RA_OF_ASC_NODE":152.1249,"ARG_OF_PERICENTER":179.6266,"MEAN_ANOMALY":180.4992,"EPHEMERIS_TYPE":0,"CLASSIFICATION_TYPE":"U","NORAD_CAT_ID":55206,"ELEMENT_SET_NO":999,"REV_AT_EPOCH":17057,"BSTAR":0.00785456,"MEAN_MOTION_DOT":0.00163373,"MEAN_MOTION_DDOT":0}]
